1 28868U 05036A   17347.60601546 -.00000075 +00000-0 +00000-0 0  9999
2 28868 000.0315 057.8844 0001513 264.3814 231.0690 01.00271593015350
